{
  "norad_id": 57514,
  "name": "STARLINK-30231",
  "history": [
    {
      "epoch": "2026-04-17T20:10:18.356736Z",
      "apogee_km": 486.30641718602146,
      "perigee_km": 482.7306991339974,
      "latitude_deg": 2.5229482075823886e-05,
      "longitude_deg": 6.34017330498803,
      "height_km": 484.6978271700362,
      "semi_major_axis_km": 6862.655558160009,
      "eccentricity": 0.00026052,
      "inclination_deg": 43.004,
      "raan_deg": 154.8847,
      "arg_perigee_deg": 257.0297,
      "mean_anomaly_deg": 103.0264,
      "mean_motion_rev_day": 15.27089388
    },
    {
      "epoch": "2026-04-18T19:42:51.754176Z",
      "apogee_km": 484.0777905506893,
      "perigee_km": 483.8760444015161,
      "latitude_deg": -1.5735489154494017e-05,
      "longitude_deg": 6.696713145983918,
      "height_km": 483.65142061687135,
      "semi_major_axis_km": 6862.113917476103,
      "eccentricity": 1.47e-05,
      "inclination_deg": 42.9992,
      "raan_deg": 149.3473,
      "arg_perigee_deg": 359.2627,
      "mean_anomaly_deg": 0.8224,
      "mean_motion_rev_day": 15.27270196
    },
    {
      "epoch": "2026-04-19T09:50:22.229664Z",
      "apogee_km": 484.589886104216,
      "perigee_km": 482.8639900865064,
      "latitude_deg": 6.371860065451021e-05,
      "longitude_deg": 150.91871759082386,
      "height_km": 483.42420601855184,
      "semi_major_axis_km": 6861.863938095361,
      "eccentricity": 0.00012576,
      "inclination_deg": 43.0043,
      "raan_deg": 146.0263,
      "arg_perigee_deg": 275.307,
      "mean_anomaly_deg": 84.7639,
      "mean_motion_rev_day": 15.27353655
    },
    {
      "epoch": "2026-04-20T14:00:03.000384Z",
      "apogee_km": 484.0145074998618,
      "perigee_km": 482.27091909911815,
      "latitude_deg": -13.34010242882876,
      "longitude_deg": 66.06873526546082,
      "height_km": 485.07256728667164,
      "semi_major_axis_km": 6861.279713299489,
      "eccentricity": 0.00012706,
      "inclination_deg": 43.0008,
      "raan_deg": 139.4007,
      "arg_perigee_deg": 287.2237,
      "mean_anomaly_deg": 53.1865,
      "mean_motion_rev_day": 15.27548736
    },
    {
      "epoch": "2026-04-21T18:20:00.028608Z",
      "apogee_km": 484.0636072926145,
      "perigee_km": 482.0368125907971,
      "latitude_deg": 4.740644460081563e-05,
      "longitude_deg": 7.8949803613727045,
      "height_km": 482.45336047442754,
      "semi_major_axis_km": 6861.187209941705,
      "eccentricity": 0.0001477,
      "inclination_deg": 43.0051,
      "raan_deg": 132.7302,
      "arg_perigee_deg": 291.6662,
      "mean_anomaly_deg": 68.4033,
      "mean_motion_rev_day": 15.27579628
    },
    {
      "epoch": "2026-04-22T08:27:24.302304Z",
      "apogee_km": 483.78926628358204,
      "perigee_km": 482.3106804908184,
      "latitude_deg": 3.807700728702751e-05,
      "longitude_deg": 152.14210073149883,
      "height_km": 482.59288020813165,
      "semi_major_axis_km": 6861.1869733872,
      "eccentricity": 0.00010775,
      "inclination_deg": 43.0022,
      "raan_deg": 129.4085,
      "arg_perigee_deg": 288.4318,
      "mean_anomaly_deg": 71.6417,
      "mean_motion_rev_day": 15.27579707
    },
    {
      "epoch": "2026-04-23T01:43:07.561920Z",
      "apogee_km": 483.664543435003,
      "perigee_km": 482.42225811163917,
      "latitude_deg": 2.504153141316697e-05,
      "longitude_deg": -111.5591890990748,
      "height_km": 482.6333450083203,
      "semi_major_axis_km": 6861.180400773321,
      "eccentricity": 9.053e-05,
      "inclination_deg": 43.0018,
      "raan_deg": 125.3464,
      "arg_perigee_deg": 287.4745,
      "mean_anomaly_deg": 72.6008,
      "mean_motion_rev_day": 15.27581902
    },
    {
      "epoch": "2026-04-25T16:29:22.497216Z",
      "apogee_km": 483.6407168361329,
      "perigee_km": 482.46608103983453,
      "latitude_deg": -4.76946512331712e-05,
      "longitude_deg": 9.528994557655668,
      "height_km": 482.56824895109474,
      "semi_major_axis_km": 6861.190398937983,
      "eccentricity": 8.56e-05,
      "inclination_deg": 42.9999,
      "raan_deg": 110.5748,
      "arg_perigee_deg": 296.4206,
      "mean_anomaly_deg": 63.6557,
      "mean_motion_rev_day": 15.27578563
    },
    {
      "epoch": "2026-04-26T16:01:43.099680Z",
      "apogee_km": 483.555091958945,
      "perigee_km": 482.55939545029923,
      "latitude_deg": -4.459124507903994e-05,
      "longitude_deg": 9.938339933533754,
      "height_km": 482.8000823949586,
      "semi_major_axis_km": 6861.194243704622,
      "eccentricity": 7.256e-05,
      "inclination_deg": 43.0014,
      "raan_deg": 105.0367,
      "arg_perigee_deg": 273.8512,
      "mean_anomaly_deg": 86.2256,
      "mean_motion_rev_day": 15.27577279
    },
    {
      "epoch": "2026-04-27T15:34:03.739296Z",
      "apogee_km": 483.68562428484347,
      "perigee_km": 482.42865351859746,
      "latitude_deg": 2.0274941315536385e-05,
      "longitude_deg": 10.345396310139202,
      "height_km": 482.70970682842534,
      "semi_major_axis_km": 6861.19413890172,
      "eccentricity": 9.16e-05,
      "inclination_deg": 43.0024,
      "raan_deg": 99.4964,
      "arg_perigee_deg": 281.3776,
      "mean_anomaly_deg": 78.6973,
      "mean_motion_rev_day": 15.27577314
    },
    {
      "epoch": "2026-04-28T05:41:28.800096Z",
      "apogee_km": 483.6391491155955,
      "perigee_km": 482.5056773205306,
      "latitude_deg": -9.54828329003517e-06,
      "longitude_deg": 154.58810817327873,
      "height_km": 482.81360389875033,
      "semi_major_axis_km": 6861.209413218063,
      "eccentricity": 8.26e-05,
      "inclination_deg": 43.0015,
      "raan_deg": 96.1736,
      "arg_perigee_deg": 273.5595,
      "mean_anomaly_deg": 86.5162,
      "mean_motion_rev_day": 15.27572213
    },
    {
      "epoch": "2026-04-29T09:56:17.195424Z",
      "apogee_km": 483.64729100992645,
      "perigee_km": 482.36590383167186,
      "latitude_deg": -4.300595703156816e-05,
      "longitude_deg": 83.07957205160504,
      "height_km": 482.78840195837506,
      "semi_major_axis_km": 6861.143597420799,
      "eccentricity": 9.338e-05,
      "inclination_deg": 43.0017,
      "raan_deg": 89.5268,
      "arg_perigee_deg": 269.525,
      "mean_anomaly_deg": 90.5494,
      "mean_motion_rev_day": 15.27594193
    },
    {
      "epoch": "2026-04-30T14:11:07.425024Z",
      "apogee_km": 483.38145864937724,
      "perigee_km": 482.78933515652534,
      "latitude_deg": -1.6009054469834275e-05,
      "longitude_deg": 11.56353589842337,
      "height_km": 482.876203280854,
      "semi_major_axis_km": 6861.222396902951,
      "eccentricity": 4.315e-05,
      "inclination_deg": 43.0015,
      "raan_deg": 82.8801,
      "arg_perigee_deg": 267.134,
      "mean_anomaly_deg": 92.9462,
      "mean_motion_rev_day": 15.27567877
    },
    {
      "epoch": "2026-05-02T08:33:22.133088Z",
      "apogee_km": 483.8347544249755,
      "perigee_km": 482.41858960307127,
      "latitude_deg": 2.7759068769228735e-05,
      "longitude_deg": 84.28789167538466,
      "height_km": 483.0659998410331,
      "semi_major_axis_km": 6861.263672014023,
      "eccentricity": 0.0001032,
      "inclination_deg": 43.0052,
      "raan_deg": 72.9058,
      "arg_perigee_deg": 256.7404,
      "mean_anomaly_deg": 103.3333,
      "mean_motion_rev_day": 15.27554093
    },
    {
      "epoch": "2026-05-03T12:48:09.933120Z",
      "apogee_km": 483.8334980340287,
      "perigee_km": 482.2360800181077,
      "latitude_deg": 2.132467603968102e-05,
      "longitude_deg": 12.785867880254626,
      "height_km": 483.1722246181417,
      "semi_major_axis_km": 6861.171789026068,
      "eccentricity": 0.00011641,
      "inclination_deg": 43.0008,
      "raan_deg": 66.263,
      "arg_perigee_deg": 243.1287,
      "mean_anomaly_deg": 116.9446,
      "mean_motion_rev_day": 15.27584778
    },
    {
      "epoch": "2026-05-04T12:20:30.553728Z",
      "apogee_km": 483.67601021260725,
      "perigee_km": 482.4028503142081,
      "latitude_deg": -1.3009985852083157e-05,
      "longitude_deg": 13.193393930661115,
      "height_km": 483.0554414697549,
      "semi_major_axis_km": 6861.176430263407,
      "eccentricity": 9.278e-05,
      "inclination_deg": 43.0036,
      "raan_deg": 60.7232,
      "arg_perigee_deg": 247.9086,
      "mean_anomaly_deg": 112.1667,
      "mean_motion_rev_day": 15.27583228
    },
    {
      "epoch": "2026-05-05T19:43:37.637760Z",
      "apogee_km": 483.5513897691253,
      "perigee_km": 482.49751537001066,
      "latitude_deg": 5.3126613425384425e-06,
      "longitude_deg": -106.25965675306209,
      "height_km": 482.84407667827855,
      "semi_major_axis_km": 6861.161452569568,
      "eccentricity": 7.68e-05,
      "inclination_deg": 43.0015,
      "raan_deg": 53.3386,
      "arg_perigee_deg": 265.2848,
      "mean_anomaly_deg": 94.7916,
      "mean_motion_rev_day": 15.2758823
    },
    {
      "epoch": "2026-05-06T11:25:11.597088Z",
      "apogee_km": 483.5192002913036,
      "perigee_km": 482.5788061377025,
      "latitude_deg": -7.349282360665389e-06,
      "longitude_deg": 14.011151022807162,
      "height_km": 482.80091413589713,
      "semi_major_axis_km": 6861.186003214502,
      "eccentricity": 6.853e-05,
      "inclination_deg": 42.9966,
      "raan_deg": 49.6454,
      "arg_perigee_deg": 272.9,
      "mean_anomaly_deg": 87.1773,
      "mean_motion_rev_day": 15.27580031
    },
    {
      "epoch": "2026-05-07T18:48:19.754208Z",
      "apogee_km": 483.64630406949345,
      "perigee_km": 482.4510855214603,
      "latitude_deg": 1.2456120343787524e-05,
      "longitude_deg": -105.44728132161801,
      "height_km": 482.8152071354712,
      "semi_major_axis_km": 6861.185694795477,
      "eccentricity": 8.71e-05,
      "inclination_deg": 43.0013,
      "raan_deg": 42.2599,
      "arg_perigee_deg": 270.947,
      "mean_anomaly_deg": 89.1282,
      "mean_motion_rev_day": 15.27580134
    }
  ]
}